ONEWEB-0033             
1 45142U 20008M   24196.48749730  .00000329  00000+0  90729-3 0  9993
2 45142  87.8939 176.0517 0001808  82.9155 277.2178 13.10369787216183
ONEWEB-0035             
1 45143U 20008N   24196.44266697 -.00000433  00000+0 -12754-2 0  9995
2 45143  87.8951 176.0433 0001965  82.7591 277.3760 13.10374909215900
ONEWEB-0036             
1 45144U 20008P   24196.43277979 -.00004250  00000+0 -12223-1 0  9991
2 45144  87.8996 176.0045 0001994  87.7870 272.3486 13.10334081216331
ONEWEB-0038             
1 45145U 20008Q   24196.46361018 -.00000434  00000+0 -12609-2 0  9992
2 45145  87.8975 160.9220 0002714  72.0576 288.0848 13.11415734218229
ONEWEB-0039             
1 45146U 20008R   24196.49081400  .00000098  00000+0  24347-3 0  9997
2 45146  87.8942 176.0078 0002468  90.1498 269.9912 13.10369318216136
ONEWEB-0040             
1 45147U 20008S   24196.48417558  .00000495  00000+0  13819-2 0  9996
2 45147  87.8950 176.0124 0002113  84.2686 275.8682 13.10371983215835
ONEWEB-0043             
1 45149U 20008U   24196.48583506  .00000385  00000+0  10653-2 0  9996
2 45149  87.8943 176.0174 0002519  90.4158 269.7258 13.10371665216151
ONEWEB-0044             
1 45150U 20008V   24196.43768461 -.00000603  00000+0 -17640-2 0  9996
2 45150  87.8947 176.0218 0002359  89.3934 270.7463 13.10374302216440
